NORAD_CAT_ID,OBJECT_NAME,OBJECT_TYPE,EPOCH,MEAN_MOTION,ECCENTRICITY,INCLINATION,RA_OF_ASC_NODE,ARG_OF_PERICENTER,MEAN_ANOMALY,BSTAR,MEAN_MOTION_DOT,MEAN_MOTION_DDOT,TLE_LINE0,TLE_LINE1,TLE_LINE2,SEMIMAJOR_AXIS,PERIOD,APOGEE,PERIGEE,DECAYED
53977.0,STARLINK-5094,PAYLOAD,2024-06-26 04:17:10,15.08840105,0.0001324,53.2166,129.3038,90.1779,269.9365,6.3532e-05,7.23e-06,0.0,0 STARLINK-5094,1 53977U 22125P   24178.17858936  .00000723  00000-0  63532-4 0  9997,2 53977  53.2166 129.3038 0001324  90.1779 269.9365 15.08840105 95630,6917.88,95.438,540.661,538.829,0.0
53977.0,STARLINK-5094,PAYLOAD,2024-06-27 13:40:15,15.08843894,0.0001204,53.2163,123.0587,97.3196,262.7933,0.00012164,1.649e-05,0.0,0 STARLINK-5094,1 53977U 22125P   24179.56962627  .00001649  00000-0  12164-3 0  9996,2 53977  53.2163 123.0587 0001204  97.3196 262.7933 15.08843894 95849,6917.868,95.437,540.566,538.901,0.0
53977.0,STARLINK-5094,PAYLOAD,2024-06-28 02:23:22,15.08789297,0.0001482,53.2169,120.6775,124.1388,235.9745,0.00058269,8.985e-05,0.0,0 STARLINK-5094,1 53977U 22125P   24180.09956290  .00008985  00000-0  58269-3 0  9991,2 53977  53.2169 120.6775 0001482 124.1388 235.9745 15.08789297 95925,6918.035,95.441,540.926,538.875,0.0
53977.0,STARLINK-5094,PAYLOAD,2024-06-28 13:31:02,15.08853651,0.0001189,53.2168,118.5991,92.0569,268.0559,0.00014679,2.05e-05,0.0,0 STARLINK-5094,1 53977U 22125P   24180.56321906  .00002050  00000-0  14679-3 0  9997,2 53977  53.2168 118.5991 0001189  92.0569 268.0559 15.08853651 95924,6917.839,95.437,540.526,538.881,0.0
53977.0,STARLINK-5094,PAYLOAD,2024-06-28 23:03:21,15.0884224,0.0001476,53.2165,116.8104,116.4815,243.6329,2.5564e-05,1.19e-06,0.0,0 STARLINK-5094,1 53977U 22125P   24180.96066726  .00000119  00000-0  25564-4 0  9997,2 53977  53.2165 116.8104 0001476 116.4815 243.6329 15.08842240 95984,6917.874,95.437,540.76,538.717,0.0
53977.0,STARLINK-5094,PAYLOAD,2024-06-29 02:14:07,15.08843554,0.0001436,53.2171,116.2186,100.2632,259.8522,3.25e-05,2.29e-06,0.0,0 STARLINK-5094,1 53977U 22125P   24181.09314692  .00000229  00000-0  32500-4 0  9990,2 53977  53.2171 116.2186 0001436 100.2632 259.8522 15.08843554 96073,6917.87,95.437,540.728,538.741,0.0
53977.0,STARLINK-5094,PAYLOAD,2024-06-29 05:24:53,15.08846727,0.0001471,53.2173,115.6231,101.5698,258.5459,6.0364e-05,6.73e-06,0.0,0 STARLINK-5094,1 53977U 22125P   24181.22562419  .00000673  00000-0  60364-4 0  9999,2 53977  53.2173 115.6231 0001471 101.5698 258.5459 15.08846727 96029,6917.86,95.437,540.742,538.707,0.0
53977.0,STARLINK-5094,PAYLOAD,2024-06-30 02:04:56,15.08825015,0.0001199,53.2153,111.7605,100.0355,260.0773,3.3327e-06,-2.35e-06,0.0,0 STARLINK-5094,1 53977U 22125P   24182.08676308 -.00000235  00000-0  33327-5 0  9992,2 53977  53.2153 111.7605 0001199 100.0355 260.0773 15.08825015 96226,6917.926,95.439,540.621,538.962,0.0
53977.0,STARLINK-5094,PAYLOAD,2024-06-30 05:15:42,15.08832098,0.0001062,53.2169,111.1668,94.1686,265.9428,-0.0001187,-2.176e-05,0.0,0 STARLINK-5094,1 53977U 22125P   24182.21924264 -.00002176  00000-0 -11870-3 0  9998,2 53977  53.2169 111.1668 0001062  94.1686 265.9428 15.08832098 96179,6917.905,95.438,540.504,539.035,0.0
53977.0,STARLINK-5094,PAYLOAD,2024-07-01 01:55:43,15.08832821,0.0001008,53.2151,107.3018,92.9517,267.159,9.2976e-05,1.192e-05,0.0,0 STARLINK-5094,1 53977U 22125P   24183.08035942  .00001192  00000-0  92976-4 0  9992,2 53977  53.2151 107.3018 0001008  92.9517 267.1590 15.08832821 96375,6917.902,95.438,540.465,539.07,0.0
53977.0,STARLINK-5094,PAYLOAD,2024-07-01 11:27:59,15.08862365,0.0001333,53.218,105.5171,100.4972,259.617,0.00019417,2.805e-05,0.0,0 STARLINK-5094,1 53977U 22125P   24183.47777742  .00002805  00000-0  19417-3 0  9996,2 53977  53.2180 105.5171 0001333 100.4972 259.6170 15.08862365 96431,6917.812,95.436,540.599,538.755,0.0
53977.0,STARLINK-5094,PAYLOAD,2024-07-01 19:24:58,15.0882129,0.0001122,53.217,104.0313,100.4352,259.6766,9.9257e-05,1.291e-05,0.0,0 STARLINK-5094,1 53977U 22125P   24183.80900815  .00001291  00000-0  99257-4 0  9991,2 53977  53.2170 104.0313 0001122 100.4352 259.6766 15.08821290 96488,6917.938,95.439,540.579,539.026,0.0
53977.0,STARLINK-5094,PAYLOAD,2024-07-01 22:35:44,15.08828634,0.0001207,53.2164,103.4364,96.7403,263.3727,7.3476e-05,8.81e-06,0.0,0 STARLINK-5094,1 53977U 22125P   24183.94148344  .00000881  00000-0  73476-4 0  9996,2 53977  53.2164 103.4364 0001207  96.7403 263.3727 15.08828634 96431,6917.915,95.438,540.615,538.945,0.0
53977.0,STARLINK-5094,PAYLOAD,2024-07-02 00:11:07,15.08830275,0.0001248,53.2165,103.1391,96.0722,264.0413,9.2617e-05,1.186e-05,0.0,0 STARLINK-5094,1 53977U 22125P   24184.00772320  .00001186  00000-0  92617-4 0  9998,2 53977  53.2165 103.1391 0001248  96.0722 264.0413 15.08830275 96514,6917.91,95.438,540.638,538.912,0.0
53977.0,STARLINK-5094,PAYLOAD,2024-07-02 11:18:48,15.08847406,0.0001137,53.2171,101.0562,98.707,261.4051,0.00026143,3.876e-05,0.0,0 STARLINK-5094,1 53977U 22125P   24184.47139392  .00003876  00000-0  26143-3 0  9993,2 53977  53.2171 101.0562 0001137  98.7070 261.4051 15.08847406 96580,6917.858,95.437,540.509,538.936,0.0
53977.0,STARLINK-5094,PAYLOAD,2024-07-02 17:40:21,15.08839897,0.0001055,53.2176,99.8746,106.2744,253.8364,0.00025204,3.726e-05,0.0,0 STARLINK-5094,1 53977U 22125P   24184.73635860  .00003726  00000-0  25204-3 0  9994,2 53977  53.2176  99.8746 0001055 106.2744 253.8364 15.08839897 96627,6917.881,95.438,540.476,539.016,0.0
53977.0,STARLINK-5094,PAYLOAD,2024-07-02 22:26:30,15.08836735,0.000131,53.2168,98.976,102.0709,258.043,-0.00018211,-3.185e-05,0.0,0 STARLINK-5094,1 53977U 22125P   24184.93507963 -.00003185  00000-0 -18211-3 0  9999,2 53977  53.2168  98.9760 0001310 102.0709 258.0430 15.08836735 96587,6917.89,95.438,540.662,538.849,0.0
53977.0,STARLINK-5094,PAYLOAD,2024-07-03 22:17:17,15.08839194,0.0001741,53.2149,94.5151,85.6093,274.5098,0.00014275,1.984e-05,0.0,0 STARLINK-5094,1 53977U 22125P   24185.92867929  .00001984  00000-0  14275-3 0  9999,2 53977  53.2149  94.5151 0001741  85.6093 274.5098 15.08839194 96734,6917.883,95.438,540.952,538.543,0.0
53977.0,STARLINK-5094,PAYLOAD,2024-07-04 03:03:27,15.08841847,0.0001327,53.2163,93.6234,83.0019,277.1124,0.0001391,1.927e-05,0.0,0 STARLINK-5094,1 53977U 22125P   24186.12739744  .00001927  00000-0  13910-3 0  9997,2 53977  53.2163  93.6234 0001327  83.0019 277.1124 15.08841847 96830,6917.875,95.437,540.658,538.822,0.0
53977.0,STARLINK-5094,PAYLOAD,2024-07-04 11:00:21,15.0886164,9.49e-05,53.2154,92.1339,65.214,294.8951,0.00038874,5.908e-05,0.0,0 STARLINK-5094,1 53977U 22125P   24186.45858493  .00005908  00000-0  38874-3 0  9995,2 53977  53.2154  92.1339 0000949  65.2140 294.8951 15.08861640 96888,6917.814,95.436,540.336,539.023,0.0
53977.0,STARLINK-5094,PAYLOAD,2024-07-04 22:08:04,15.08838115,0.0001278,53.2159,90.0536,80.8979,279.2157,1.068e-05,-1.18e-06,0.0,0 STARLINK-5094,1 53977U 22125P   24186.92227485 -.00000118  00000-0  10680-4 0  9993,2 53977  53.2159  90.0536 0001278  80.8979 279.2157 15.08838115 96884,6917.886,95.438,540.635,538.867,0.0
53977.0,STARLINK-5094,PAYLOAD,2024-07-05 02:54:13,15.0885162,0.0001077,53.2154,89.1591,77.7663,282.345,0.00024453,3.607e-05,0.0,0 STARLINK-5094,1 53977U 22125P   24187.12098955  .00003607  00000-0  24453-3 0  9991,2 53977  53.2154  89.1591 0001077  77.7663 282.3450 15.08851620 96989,6917.845,95.437,540.455,538.965,0.0
53977.0,STARLINK-5094,PAYLOAD,2024-07-05 10:51:09,15.08857192,0.0001241,53.2163,87.676,73.8521,286.2607,0.00049899,7.666e-05,0.0,0 STARLINK-5094,1 53977U 22125P   24187.45218766  .00007666  00000-0  49899-3 0  9991,2 53977  53.2163  87.6760 0001241  73.8521 286.2607 15.08857192 96968,6917.828,95.436,540.551,538.834,0.0
53977.0,STARLINK-5094,PAYLOAD,2024-07-05 21:58:51,15.088337,0.0001435,53.2161,85.5942,90.1769,269.9388,0.00019579,2.829e-05,0.0,0 STARLINK-5094,1 53977U 22125P   24187.91587565  .00002829  00000-0  19579-3 0  9996,2 53977  53.2161  85.5942 0001435  90.1769 269.9388 15.08833700 97038,6917.9,95.438,540.757,538.772,0.0
53977.0,STARLINK-5094,PAYLOAD,2024-07-06 02:45:01,15.08834515,0.0001177,53.2166,84.702,93.9988,266.1138,0.0013978,0.00022025,0.0,0 STARLINK-5094,1 53977U 22125P   24188.11459733  .00022025  00000-0  13978-2 0  9990,2 53977  53.2166  84.7020 0001177  93.9988 266.1138 15.08834515 97136,6917.897,95.438,540.576,538.948,0.0
53977.0,STARLINK-5094,PAYLOAD,2024-07-06 10:41:56,15.08840413,0.000128,53.2188,83.2129,105.9345,254.1789,0.00099637,0.00015605,0.0,0 STARLINK-5094,1 53977U 22125P   24188.44579800  .00015605  00000-0  99637-3 0  9997,2 53977  53.2188  83.2129 0001280 105.9345 254.1789 15.08840413 97111,6917.879,95.438,540.63,538.859,0.0
53977.0,STARLINK-5094,PAYLOAD,2024-07-06 20:14:16,15.08833981,0.0001728,53.219,81.4301,109.7207,250.3972,0.00047179,7.227e-05,0.0,0 STARLINK-5094,1 53977U 22125P   24188.84324268  .00007227  00000-0  47179-3 0  9992,2 53977  53.2190  81.4301 0001728 109.7207 250.3972 15.08833981 97240,6917.899,95.438,540.959,538.568,0.0
53977.0,STARLINK-5094,PAYLOAD,2024-07-06 21:49:39,15.08832196,0.0001592,53.2181,81.133,105.0234,255.0934,0.00019136,2.758e-05,0.0,0 STARLINK-5094,1 53977U 22125P   24188.90948306  .00002758  00000-0  19136-3 0  9990,2 53977  53.2181  81.1330 0001592 105.0234 255.0934 15.08832196 97187,6917.904,95.438,540.871,538.668,0.0
53977.0,STARLINK-5094,PAYLOAD,2024-07-07 02:35:48,15.08834351,0.0001615,53.2184,80.2403,98.7767,261.3408,9.6678e-05,1.251e-05,0.0,0 STARLINK-5094,1 53977U 22125P   24189.10820300  .00001251  00000-0  96678-4 0  9990,2 53977  53.2184  80.2403 0001615  98.7767 261.3408 15.08834351 97211,6917.898,95.438,540.88,538.645,0.0
53977.0,STARLINK-5094,PAYLOAD,2024-07-07 21:40:26,15.0883994,0.0001545,53.2184,76.6733,97.5709,262.5459,0.00027565,4.102e-05,0.0,0 STARLINK-5094,1 53977U 22125P   24189.90308467  .00004102  00000-0  27565-3 0  9999,2 53977  53.2184  76.6733 0001545  97.5709 262.5459 15.08839940 97400,6917.881,95.438,540.814,538.677,0.0
